NORAD_CAT_ID,OBJECT_NAME,OBJECT_TYPE,EPOCH,MEAN_MOTION,ECCENTRICITY,INCLINATION,RA_OF_ASC_NODE,ARG_OF_PERICENTER,MEAN_ANOMALY,BSTAR,MEAN_MOTION_DOT,MEAN_MOTION_DDOT,TLE_LINE0,TLE_LINE1,TLE_LINE2,SEMIMAJOR_AXIS,PERIOD,APOGEE,PERIGEE,DECAYED
56767.0,STARLINK-6197,PAYLOAD,2024-02-10 13:10:26,14.98324994,0.0002503,70.0011,116.0576,253.9699,106.1185,-3.2919e-05,-4.86e-06,0.0,0 STARLINK-6197,1 56767U 23078A   24041.54891808 -.00000486  00000-0 -32919-4 0  9993,2 56767  70.0011 116.0576 0002503 253.9699 106.1185 14.98324994 38625,6950.208,96.107,573.813,570.334,0.0
56767.0,STARLINK-6197,PAYLOAD,2024-02-10 14:46:34,14.98324962,0.0002516,70.001,115.8891,256.086,104.002,-3.4669e-05,-5.06e-06,0.0,0 STARLINK-6197,1 56767U 23078A   24041.61567842 -.00000506  00000-0 -34669-4 0  9996,2 56767  70.0010 115.8891 0002516 256.0860 104.0020 14.98324962 38630,6950.208,96.107,573.822,570.325,0.0
56767.0,STARLINK-6197,PAYLOAD,2024-02-11 11:36:18,14.98332232,0.0002686,70.0005,113.7003,259.3292,100.7564,4.6301e-05,4.6e-06,0.0,0 STARLINK-6197,1 56767U 23078A   24042.48355191  .00000460  00000-0  46301-4 0  9997,2 56767  70.0005 113.7003 0002686 259.3292 100.7564 14.98332232 39028,6950.186,96.107,573.918,570.184,0.0
56767.0,STARLINK-6197,PAYLOAD,2024-02-11 14:48:34,14.98335246,0.0002634,70.0007,113.3641,258.3952,101.6912,8.1506e-05,8.8e-06,0.0,0 STARLINK-6197,1 56767U 23078A   24042.61706864  .00000880  00000-0  81506-4 0  9991,2 56767  70.0007 113.3641 0002634 258.3952 101.6912 14.98335246 38786,6950.177,96.107,573.872,570.211,0.0
56767.0,STARLINK-6197,PAYLOAD,2024-02-12 11:38:19,14.98334751,0.0002574,70.0008,111.1755,258.5359,101.5511,0.00010537,1.165e-05,0.0,0 STARLINK-6197,1 56767U 23078A   24043.48494579  .00001165  00000-0  10537-3 0  9996,2 56767  70.0008 111.1755 0002574 258.5359 101.5511 14.98334751 39173,6950.178,96.107,573.832,570.254,0.0
56767.0,STARLINK-6197,PAYLOAD,2024-02-12 14:50:35,14.98336058,0.000256,70.0008,110.8391,258.6056,101.4815,0.00011462,1.275e-05,0.0,0 STARLINK-6197,1 56767U 23078A   24043.61846419  .00001275  00000-0  11462-3 0  9995,2 56767  70.0008 110.8391 0002560 258.6056 101.4815 14.98336058 38936,6950.174,96.107,573.818,570.26,0.0
56767.0,STARLINK-6197,PAYLOAD,2024-02-13 11:40:21,14.98322564,0.0002083,70.0017,108.6495,254.9138,105.1791,-8.9481e-05,-1.16e-05,0.0,0 STARLINK-6197,1 56767U 23078A   24044.48635817 -.00001160  00000-0 -89481-4 0  9991,2 56767  70.0017 108.6495 0002083 254.9138 105.1791 14.98322564 39321,6950.216,96.107,573.529,570.633,0.0
56767.0,STARLINK-6197,PAYLOAD,2024-02-13 13:16:29,14.98323153,0.0002123,70.0015,108.4812,256.2406,103.8517,-8.4111e-05,-1.096e-05,0.0,0 STARLINK-6197,1 56767U 23078A   24044.55311796 -.00001096  00000-0 -84111-4 0  9999,2 56767  70.0015 108.4812 0002123 256.2406 103.8517 14.98323153 39076,6950.214,96.107,573.555,570.604,0.0
56767.0,STARLINK-6197,PAYLOAD,2024-02-13 21:17:08,14.98340294,0.0002605,70.0008,107.6398,271.084,89.0021,-4.1212e-05,-5.85e-06,0.0,0 STARLINK-6197,1 56767U 23078A   24044.88690506 -.00000585  00000-0 -41212-4 0  9991,2 56767  70.0008 107.6398 0002605 271.0840  89.0021 14.98340294 39126,6950.161,96.106,573.837,570.216,0.0
56767.0,STARLINK-6197,PAYLOAD,2024-02-14 05:17:48,14.98341128,0.0003202,69.9987,106.7954,274.2958,85.7835,4.8041e-05,4.8e-06,0.0,0 STARLINK-6197,1 56767U 23078A   24045.22069796  .00000480  00000-0  48041-4 0  9990,2 56767  69.9987 106.7954 0003202 274.2958  85.7835 14.98341128 39433,6950.158,96.106,574.249,569.798,0.0
56767.0,STARLINK-6197,PAYLOAD,2024-02-14 11:42:19,14.98353578,0.0002969,69.9994,106.1238,273.9966,86.0853,0.00013009,1.46e-05,0.0,0 STARLINK-6197,1 56767U 23078A   24045.48772599  .00001460  00000-0  13009-3 0  9994,2 56767  69.9994 106.1238 0002969 273.9966  86.0853 14.98353578 39474,6950.12,96.105,574.048,569.921,0.0
56767.0,STARLINK-6197,PAYLOAD,2024-02-14 13:18:27,14.98353017,0.0002515,69.9998,105.9557,257.051,103.0368,0.00018094,2.068e-05,0.0,0 STARLINK-6197,1 56767U 23078A   24045.55448377  .00002068  00000-0  18094-3 0  9990,2 56767  69.9998 105.9557 0002515 257.0510 103.0368 14.98353017 39226,6950.122,96.106,573.735,570.239,0.0
56767.0,STARLINK-6197,PAYLOAD,2024-02-14 21:19:09,14.98328365,0.0002708,70.0016,105.115,267.1191,92.9658,-6.1463e-05,-8.26e-06,0.0,0 STARLINK-6197,1 56767U 23078A   24045.88830351 -.00000826  00000-0 -61463-4 0  9994,2 56767  70.0016 105.1150 0002708 267.1191  92.9658 14.98328365 39273,6950.198,96.107,573.945,570.181,0.0
56767.0,STARLINK-6197,PAYLOAD,2024-02-15 11:44:23,14.98310268,0.0002548,70.0007,103.5996,272.0466,88.0401,-0.00013675,-1.723e-05,0.0,0 STARLINK-6197,1 56767U 23078A   24046.48916214 -.00001723  00000-0 -13675-3 0  9992,2 56767  70.0007 103.5996 0002548 272.0466  88.0401 14.98310268 39629,6950.254,96.108,573.89,570.348,0.0
56767.0,STARLINK-6197,PAYLOAD,2024-02-15 13:20:31,14.98310427,0.0002579,70.0006,103.4312,272.2806,87.8058,-0.00013582,-1.712e-05,0.0,0 STARLINK-6197,1 56767U 23078A   24046.55592263 -.00001712  00000-0 -13582-3 0  9999,2 56767  70.0006 103.4312 0002579 272.2806  87.8058 14.98310427 39377,6950.253,96.108,573.911,570.326,0.0
56767.0,STARLINK-6197,PAYLOAD,2024-02-16 03:45:43,14.98330307,0.0003169,69.9989,101.9156,270.4135,89.6661,-0.00014649,-1.841e-05,0.0,0 STARLINK-6197,1 56767U 23078A   24047.15675126 -.00001841  00000-0 -14649-3 0  9994,2 56767  69.9989 101.9156 0003169 270.4135  89.6661 14.98330307 39722,6950.192,96.107,574.259,569.854,0.0
56767.0,STARLINK-6197,PAYLOAD,2024-02-16 11:46:22,14.9834097,0.0002935,69.9993,101.0741,271.1331,88.9492,-8.7423e-05,-1.136e-05,0.0,0 STARLINK-6197,1 56767U 23078A   24047.49054263 -.00001136  00000-0 -87423-4 0  9992,2 56767  69.9993 101.0741 0002935 271.1331  88.9492 14.98340970 39770,6950.159,96.106,574.064,569.984,0.0
56767.0,STARLINK-6197,PAYLOAD,2024-02-16 13:22:30,14.9834181,0.0002935,69.9994,100.9057,270.9644,89.1178,-7.2046e-05,-9.53e-06,0.0,0 STARLINK-6197,1 56767U 23078A   24047.55730128 -.00000953  00000-0 -72046-4 0  9991,2 56767  69.9994 100.9057 0002935 270.9644  89.1178 14.98341810 39524,6950.156,96.106,574.061,569.981,0.0
56767.0,STARLINK-6197,PAYLOAD,2024-02-17 03:47:44,14.9831512,0.0002797,69.9997,99.3906,269.5297,90.5542,0.000138,1.553e-05,0.0,0 STARLINK-6197,1 56767U 23078A   24048.15815316  .00001553  00000-0  13800-3 0  9998,2 56767  69.9997  99.3906 0002797 269.5297  90.5542 14.98315120 39879,6950.239,96.108,574.048,570.16,0.0
56767.0,STARLINK-6197,PAYLOAD,2024-02-17 13:24:33,14.983176,0.0002856,69.9997,98.381,269.8634,90.2198,0.00011502,1.279e-05,0.0,0 STARLINK-6197,1 56767U 23078A   24048.55871549  .00001279  00000-0  11502-3 0  9994,2 56767  69.9997  98.3810 0002856 269.8634  90.2198 14.98317600 39673,6950.231,96.108,574.081,570.111,0.0
56767.0,STARLINK-6197,PAYLOAD,2024-02-18 03:49:45,14.98333132,0.0002812,69.9997,96.8661,270.1678,89.9159,3.3192e-05,3.03e-06,0.0,0 STARLINK-6197,1 56767U 23078A   24049.15954996  .00000303  00000-0  33192-4 0  9996,2 56767  69.9997  96.8661 0002812 270.1678  89.9159 14.98333132 40026,6950.183,96.107,574.003,570.094,0.0
56767.0,STARLINK-6197,PAYLOAD,2024-02-18 13:26:33,14.98337182,0.0002747,69.9998,95.8569,268.3517,91.7327,5.0895e-05,5.14e-06,0.0,0 STARLINK-6197,1 56767U 23078A   24049.56010575  .00000514  00000-0  50895-4 0  9990,2 56767  69.9998  95.8569 0002747 268.3517  91.7327 14.98337182 39824,6950.171,96.107,573.945,570.126,0.0
56767.0,STARLINK-6197,PAYLOAD,2024-02-18 19:51:05,14.98331524,0.0002734,69.9998,95.1833,269.3836,90.701,6.2208e-06,-1.9e-07,0.0,0 STARLINK-6197,1 56767U 23078A   24049.82714977 -.00000019  00000-0  62208-5 0  9999,2 56767  69.9998  95.1833 0002734 269.3836  90.7010 14.98331524 39868,6950.188,96.107,573.953,570.153,0.0
56767.0,STARLINK-6197,PAYLOAD,2024-02-19 03:51:46,14.98327707,0.0002762,69.9998,94.3417,269.8983,90.186,3.3302e-05,3.04e-06,0.0,0 STARLINK-6197,1 56767U 23078A   24050.16095123  .00000304  00000-0  33302-4 0  9991,2 56767  69.9998  94.3417 0002762 269.8983  90.1860 14.98327707 40177,6950.2,96.107,573.985,570.145,0.0
56767.0,STARLINK-6197,PAYLOAD,2024-02-19 11:52:26,14.98338069,0.000249,69.9997,93.4999,264.3935,95.694,-0.00016655,-2.08e-05,0.0,0 STARLINK-6197,1 56767U 23078A   24050.49475073 -.00002080  00000-0 -16655-3 0  9999,2 56767  69.9997  93.4999 0002490 264.3935  95.6940 14.98338069 39963,6950.168,96.106,573.764,570.302,0.0
56767.0,STARLINK-6197,PAYLOAD,2024-02-19 19:53:07,14.98325907,0.0002853,69.9994,92.6576,270.1621,89.9211,1.0003e-06,-8.1e-07,0.0,0 STARLINK-6197,1 56767U 23078A   24050.82855442 -.00000081  00000-0  10003-5 0  9999,2 56767  69.9994  92.6576 0002853 270.1621  89.9211 14.98325907 40014,6950.206,96.107,574.053,570.088,0.0
56767.0,STARLINK-6197,PAYLOAD,2024-02-20 03:53:47,14.98329287,0.0002835,69.9993,91.8159,268.3319,91.7515,-6.435e-05,-8.61e-06,0.0,0 STARLINK-6197,1 56767U 23078A   24051.16235353 -.00000861  00000-0 -64350-4 0  9990,2 56767  69.9993  91.8159 0002835 268.3319  91.7515 14.98329287 40321,6950.195,96.107,574.03,570.09,0.0
56767.0,STARLINK-6197,PAYLOAD,2024-02-20 11:54:27,14.983287,0.0002882,69.9993,90.9746,268.212,91.8709,-7.2124e-05,-9.53e-06,0.0,0 STARLINK-6197,1 56767U 23078A   24051.49615413 -.00000953  00000-0 -72124-4 0  9995,2 56767  69.9993  90.9746 0002882 268.2120  91.8709 14.98328700 40116,6950.197,96.107,574.065,570.059,0.0
56767.0,STARLINK-6197,PAYLOAD,2024-02-20 19:55:07,14.9832792,0.0002925,69.9991,90.1327,267.3184,92.764,-8.9591e-06,-2e-06,0.0,0 STARLINK-6197,1 56767U 23078A   24051.82995290 -.00000200  00000-0 -89591-5 0  9998,2 56767  69.9991  90.1327 0002925 267.3184  92.7640 14.98327920 40161,6950.199,96.107,574.097,570.031,0.0
56767.0,STARLINK-6197,PAYLOAD,2024-02-21 03:55:48,14.98330162,0.0002899,69.9992,89.2912,269.1694,90.9133,2.7856e-05,2.39e-06,0.0,0 STARLINK-6197,1 56767U 23078A   24052.16375046  .00000239  00000-0  27856-4 0  9992,2 56767  69.9992  89.2912 0002899 269.1694  90.9133 14.98330162 40470,6950.192,96.107,574.072,570.043,0.0
